OBJECT B                
1 51825U 22019B   24093.81612082  .00010514  00000+0  49334-3 0  9997
2 51825  97.4346 166.1793 0016207 140.8898 219.3512 15.19718781115775
